OBJECT_NAME,OBJECT_ID,EPOCH,MEAN_MOTION,ECCENTRICITY,INCLINATION,RA_OF_ASC_NODE,ARG_OF_PERICENTER,MEAN_ANOMALY,EPHEMERIS_TYPE,CLASSIFICATION_TYPE,NORAD_CAT_ID,ELEMENT_SET_NO,REV_AT_EPOCH,BSTAR,MEAN_MOTION_DOT,MEAN_MOTION_DDOT
INTELSAT 21 (IS-21),2012-045A,2026-06-19T21:09:22.913280,1.00272499,.00014286,0.0182,15.5881,83.7538,68.1019,0,U,38749,999,5055,0,-.29E-5,0
INTELSAT 23 (IS-23),2012-057A,2026-06-19T05:29:59.907840,1.00267375,.00001343,0.0099,325.5761,86.5042,244.8525,0,U,38867,999,4997,0,-.291E-5,0
FM-6,2013-058A,2026-06-19T20:52:32.028960,1.00270804,.00018006,0.0358,52.4013,123.2173,289.3063,0,U,39360,999,4610,0,0,0
INTELSAT 30 (IS-30),2014-062A,2026-06-19T05:50:50.775072,1.00270952,.00012405,0.0281,53.7801,330.6226,235.7245,0,U,40271,999,681,0,-.157E-5,0
DIRECTV 14,2014-078B,2026-06-19T15:49:34.928256,1.00270473,.00003131,0.0096,21.7348,296.0721,88.2306,0,U,40333,999,4206,0,-.131E-5,0
DIRECTV 15,2015-026A,2026-06-19T15:48:35.023680,1.00272172,.00003004,0.0148,55.2937,316.2829,30.5620,0,U,40663,999,4048,0,-.108E-5,0
SKY MEXICO-1,2015-026B,2026-06-19T21:03:23.488416,1.00272276,.00021251,0.0173,57.8933,47.1977,40.0495,0,U,40664,999,4048,0,-.24E-5,0
INTELSAT 34 (IS-34),2015-039A,2026-06-19T19:14:38.479200,1.00270827,.00005003,0.0089,12.0194,334.3252,154.8400,0,U,40874,999,3966,0,-.291E-5,0
INTELSAT 31 (IS-31),2016-035A,2026-06-19T02:09:30.712320,1.00264216,.00011277,0.0171,269.3791,318.6423,336.6183,0,U,41581,999,3670,0,-.156E-5,0
INTELSAT 36 (IS-36),2016-053A,2026-06-18T23:56:21.800256,1.00271257,.00021211,0.0124,11.1204,322.4188,1.2761,0,U,41747,999,3597,0,-.31E-6,0
INTELSAT 32E (IS-32E),2017-007B,2026-06-19T20:52:38.421696,1.00276047,.00009116,0.0183,12.7396,302.1800,223.1458,0,U,41945,999,3425,0,-.274E-5,0
INTELSAT 35E (IS-35E),2017-041A,2026-06-19T21:15:53.883648,1.00270538,.00020963,0.0199,17.7179,71.1520,103.7192,0,U,42818,999,3284,0,0,0
INTELSAT 37E (IS-37E),2017-059A,2026-06-19T20:36:38.516832,1.00271087,.00025783,0.0183,15.8076,96.8898,86.5479,0,U,42950,999,3209,0,-.146E-5,0
AZERSPACE 2 (IS-38),2018-074A,2026-06-19T19:56:01.995360,1.00270769,.00013516,0.0183,16.6426,71.2108,164.3096,0,U,43632,999,2847,0,.131E-5,0
HORIZONS-3E,2018-074B,2026-06-19T20:31:26.550624,1.00267073,.00008931,0.0016,83.0794,215.5434,86.3125,0,U,43633,999,2836,0,-.37E-6,0
AT&T T-16,2019-034A,2026-06-19T20:57:01.597824,1.00271351,.00007936,0.0213,66.4153,244.4703,170.6036,0,U,44333,999,2566,0,-.121E-5,0
INTELSAT 39 (IS-39),2019-049B,2026-06-19T23:29:14.354304,1.00270957,.00009263,0.0109,339.1114,352.4452,350.8926,0,U,44476,999,2515,0,.28E-6,0
GALAXY 30 (G-30),2020-056C,2026-06-19T17:24:54.157248,1.00272867,.00022535,0.0178,13.9580,74.1097,316.0992,0,U,46114,999,2131,0,.31E-6,0
GALAXY 33 (G-33),2022-128A,2026-06-19T15:17:38.500224,1.00270297,.00017076,0.0199,49.5970,34.7906,279.8759,0,U,54026,999,1376,0,.73E-6,0
GALAXY 34 (G-34),2022-128B,2026-06-19T17:23:46.764384,1.00275881,.00016753,0.0118,50.0538,48.8611,300.9719,0,U,54027,999,1393,0,.53E-6,0
GALAXY 31 (G-31),2022-153A,2026-06-19T15:43:20.525952,1.00271913,.00011424,0.0226,84.3496,355.7949,302.5529,0,U,54243,999,715,0,.7E-7,0
GALAXY 32 (G-32),2022-153B,2026-06-19T20:59:53.823264,1.00271615,.00020791,0.0145,32.3186,4.4656,95.2833,0,U,54244,999,1317,0,-.18E-5,0
GALAXY 35 (G-35),2022-170A,2026-06-19T20:59:16.382688,1.00271921,.00018609,0.0159,72.7032,12.5053,44.5897,0,U,54741,999,1292,0,-.168E-5,0
GALAXY 36 (G-36),2022-170B,2026-06-19T21:00:31.262976,1.00272135,.00025543,0.0016,134.8714,308.7168,50.6340,0,U,54742,999,1280,0,-.191E-5,0
GALAXY 37 (G-37),2023-112A,2026-06-19T14:59:38.710176,1.00271263,.00020115,0.0113,337.8853,108.5448,279.3221,0,U,57493,999,1056,0,.42E-6,0
